NORAD_CAT_ID,OBJECT_NAME,OBJECT_TYPE,EPOCH,MEAN_MOTION,ECCENTRICITY,INCLINATION,RA_OF_ASC_NODE,ARG_OF_PERICENTER,MEAN_ANOMALY,BSTAR,MEAN_MOTION_DOT,MEAN_MOTION_DDOT,TLE_LINE0,TLE_LINE1,TLE_LINE2,SEMIMAJOR_AXIS,PERIOD,APOGEE,PERIGEE,DECAYED
55949.0,STARLINK-5899,PAYLOAD,2024-03-24 20:29:56,14.98331465,0.0002995,69.9981,266.971,273.0198,87.0618,9.2041e-05,1.005e-05,0.0,0 STARLINK-5899,1 55949U 23037AM  24084.85413023  .00001005  00000-0  92041-4 0  9997,2 55949  69.9981 266.9710 0002995 273.0198  87.0618 14.98331465 57738,6950.188,96.107,574.135,569.972,0.0
55949.0,STARLINK-5899,PAYLOAD,2024-03-24 22:06:04,14.98332804,0.0002962,69.9982,266.8028,272.7393,87.3427,0.0001081,1.197e-05,0.0,0 STARLINK-5899,1 55949U 23037AM  24084.92088908  .00001197  00000-0  10810-3 0  9990,2 55949  69.9982 266.8028 0002962 272.7393  87.3427 14.98332804 57400,6950.184,96.107,574.108,569.991,0.0
55949.0,STARLINK-5899,PAYLOAD,2024-03-25 12:31:16,14.9834144,0.0003086,69.9979,265.2879,273.0325,87.0481,0.00015229,1.725e-05,0.0,0 STARLINK-5899,1 55949U 23037AM  24085.52172088  .00001725  00000-0  15229-3 0  9996,2 55949  69.9979 265.2879 0003086 273.0325  87.0481 14.98341440 57830,6950.158,96.106,574.167,569.878,0.0
55949.0,STARLINK-5899,PAYLOAD,2024-03-25 22:08:04,14.98346562,0.0002945,69.999,264.2793,268.2031,91.8791,0.00020909,2.404e-05,0.0,0 STARLINK-5899,1 55949U 23037AM  24085.92227366  .00002404  00000-0  20909-3 0  9996,2 55949  69.9990 264.2793 0002945 268.2031  91.8791 14.98346562 57556,6950.142,96.106,574.053,569.96,0.0
55949.0,STARLINK-5899,PAYLOAD,2024-03-26 04:32:35,14.98393686,0.0003101,70.0007,263.6029,279.34,80.7408,-0.00077168,-9.304e-05,0.0,0 STARLINK-5899,1 55949U 23037AM  24086.18930271 -.00009304  00000-0 -77168-3 0  9998,2 55949  70.0007 263.6029 0003101 279.3400  80.7408 14.98393686 57934,6949.996,96.103,574.016,569.706,0.0
55949.0,STARLINK-5899,PAYLOAD,2024-03-26 12:33:18,14.98336546,0.0002259,70.0007,262.7641,275.1645,84.9256,8.3149e-05,8.99e-06,0.0,0 STARLINK-5899,1 55949U 23037AM  24086.52312645  .00000899  00000-0  83149-4 0  9990,2 55949  70.0007 262.7641 0002259 275.1645  84.9256 14.98336546 57986,6950.173,96.107,573.608,570.468,0.0
55949.0,STARLINK-5899,PAYLOAD,2024-03-26 14:09:26,14.98334442,0.0002331,70.0005,262.5959,274.4146,85.6747,6.3462e-05,6.64e-06,0.0,0 STARLINK-5899,1 55949U 23037AM  24086.58988779  .00000664  00000-0  63462-4 0  9999,2 55949  70.0005 262.5959 0002331 274.4146  85.6747 14.98334442 57653,6950.179,96.107,573.664,570.424,0.0
55949.0,STARLINK-5899,PAYLOAD,2024-03-26 20:33:58,14.98331005,0.0002625,70.0004,261.9239,266.3225,93.7634,-7.6497e-06,-1.84e-06,0.0,0 STARLINK-5899,1 55949U 23037AM  24086.85693031 -.00000184  00000-0 -76497-5 0  9995,2 55949  70.0004 261.9239 0002625 266.3225  93.7634 14.98331005 57691,6950.19,96.107,573.879,570.23,0.0
55949.0,STARLINK-5899,PAYLOAD,2024-03-27 12:35:18,14.98339511,0.000275,70.0,260.2406,266.0793,94.0052,-0.00011237,-1.434e-05,0.0,0 STARLINK-5899,1 55949U 23037AM  24087.52452413 -.00001434  00000-0 -11237-3 0  9995,2 55949  70.0000 260.2406 0002750 266.0793  94.0052 14.98339511 58139,6950.163,96.106,573.94,570.117,0.0
55949.0,STARLINK-5899,PAYLOAD,2024-03-27 14:11:26,14.98338955,0.0002763,69.9999,260.0723,265.8065,94.2778,-0.00011474,-1.462e-05,0.0,0 STARLINK-5899,1 55949U 23037AM  24087.59128408 -.00001462  00000-0 -11474-3 0  9990,2 55949  69.9999 260.0723 0002763 265.8065  94.2778 14.98338955 57807,6950.165,96.106,573.951,570.11,0.0
55949.0,STARLINK-5899,PAYLOAD,2024-03-27 22:12:07,14.98338484,0.0002783,69.9999,259.23,269.129,90.955,-0.00011305,-1.442e-05,0.0,0 STARLINK-5899,1 55949U 23037AM  24087.92508282 -.00001442  00000-0 -11305-3 0  9990,2 55949  69.9999 259.2300 0002783 269.1290  90.9550 14.98338484 57850,6950.167,96.106,573.966,570.097,0.0
55949.0,STARLINK-5899,PAYLOAD,2024-03-28 12:37:19,14.98332369,0.000281,69.9997,257.7147,269.4934,90.5903,6.3998e-05,6.71e-06,0.0,0 STARLINK-5899,1 55949U 23037AM  24088.52591956  .00000671  00000-0  63998-4 0  9994,2 55949  69.9997 257.7147 0002810 269.4934  90.5903 14.98332369 58281,6950.186,96.107,574.004,570.098,0.0
55949.0,STARLINK-5899,PAYLOAD,2024-03-29 12:39:20,14.98331905,0.0002882,69.9998,255.1897,269.7638,90.3191,5.2268e-05,5.31e-06,0.0,0 STARLINK-5899,1 55949U 23037AM  24089.52731814  .00000531  00000-0  52268-4 0  9997,2 55949  69.9998 255.1897 0002882 269.7638  90.3191 14.98331905 58438,6950.187,96.107,574.055,570.049,0.0
55949.0,STARLINK-5899,PAYLOAD,2024-03-29 20:40:00,14.98333818,0.0002953,69.9997,254.348,270.1972,89.8849,3.7113e-05,3.5e-06,0.0,0 STARLINK-5899,1 55949U 23037AM  24089.86111665  .00000350  00000-0  37113-4 0  9991,2 55949  69.9997 254.3480 0002953 270.1972  89.8849 14.98333818 58148,6950.181,96.107,574.098,569.994,0.0
55949.0,STARLINK-5899,PAYLOAD,2024-03-30 12:41:21,14.9833004,0.0002939,69.9983,252.6639,270.2272,89.855,-1.8698e-05,-3.16e-06,0.0,0 STARLINK-5899,1 55949U 23037AM  24090.52871910 -.00000316  00000-0 -18698-4 0  9993,2 55949  69.9983 252.6639 0002939 270.2272  89.8550 14.98330040 58589,6950.193,96.107,574.1,570.015,0.0
55949.0,STARLINK-5899,PAYLOAD,2024-03-30 14:17:29,14.98329889,0.0002949,69.999,252.4956,270.2599,89.8222,-1.873e-05,-3.16e-06,0.0,0 STARLINK-5899,1 55949U 23037AM  24090.59547916 -.00000316  00000-0 -18730-4 0  9993,2 55949  69.9990 252.4956 0002949 270.2599  89.8222 14.98329889 58259,6950.193,96.107,574.108,570.009,0.0
55949.0,STARLINK-5899,PAYLOAD,2024-03-30 20:42:01,14.98331906,0.0003072,69.9991,251.8232,272.135,87.9457,-3.6448e-05,-5.28e-06,0.0,0 STARLINK-5899,1 55949U 23037AM  24090.86251840 -.00000528  00000-0 -36448-4 0  9992,2 55949  69.9991 251.8232 0003072 272.1350  87.9457 14.98331906 58290,6950.187,96.107,574.187,569.917,0.0
55949.0,STARLINK-5899,PAYLOAD,2024-03-31 12:43:17,14.98391721,0.000275,69.9996,250.1397,213.2155,146.8832,0.00059004,6.965e-05,0.0,0 STARLINK-5899,1 55949U 23037AM  24091.53005868  .00006965  00000-0  59004-3 0  9995,2 55949  69.9996 250.1397 0002750 213.2155 146.8832 14.98391721 58732,6950.002,96.103,573.778,569.956,0.0
55949.0,STARLINK-5899,PAYLOAD,2024-03-31 14:19:29,14.98333602,0.0003301,69.9996,249.9717,284.6506,75.4287,-3.8554e-05,-5.53e-06,0.0,0 STARLINK-5899,1 55949U 23037AM  24091.59687062 -.00000553  00000-0 -38554-4 0  9990,2 55949  69.9996 249.9717 0003301 284.6506  75.4287 14.98333602 58408,6950.182,96.107,574.341,569.752,0.0
55949.0,STARLINK-5899,PAYLOAD,2024-03-31 20:44:02,14.98328563,0.0003115,69.9997,249.2984,273.0204,87.0598,-9.4159e-05,-1.216e-05,0.0,0 STARLINK-5899,1 55949U 23037AM  24091.86391397 -.00001216  00000-0 -94159-4 0  9993,2 55949  69.9997 249.2984 0003115 273.0204  87.0598 14.98328563 58783,6950.197,96.107,574.227,569.897,0.0
55949.0,STARLINK-5899,PAYLOAD,2024-04-01 12:45:23,14.98317115,0.0002999,70.0,247.6154,272.9903,87.0913,-8.9309e-05,-1.158e-05,0.0,0 STARLINK-5899,1 55949U 23037AM  24092.53152373 -.00001158  00000-0 -89309-4 0  9993,2 55949  70.0000 247.6154 0002999 272.9903  87.0913 14.98317115 58888,6950.233,96.108,574.182,570.013,0.0
55949.0,STARLINK-5899,PAYLOAD,2024-04-01 14:21:31,14.98316721,0.0002995,70.0,247.447,273.1647,86.9169,-9.9806e-05,-1.283e-05,0.0,0 STARLINK-5899,1 55949U 23037AM  24092.59828481 -.00001283  00000-0 -99806-4 0  9991,2 55949  70.0000 247.4470 0002995 273.1647  86.9169 14.98316721 58558,6950.234,96.108,574.181,570.017,0.0
55949.0,STARLINK-5899,PAYLOAD,2024-04-02 03:10:35,14.98327295,0.0003114,70.0002,246.101,271.0925,88.9878,-0.00010434,-1.338e-05,0.0,0 STARLINK-5899,1 55949U 23037AM  24093.13236027 -.00001338  00000-0 -10434-3 0  9991,2 55949  70.0002 246.1010 0003114 271.0925  88.9878 14.98327295 58979,6950.201,96.107,574.231,569.902,0.0
55949.0,STARLINK-5899,PAYLOAD,2024-04-02 11:11:15,14.98361603,0.0003115,70.0,245.2591,273.4815,86.5988,-0.00052399,-6.345e-05,0.0,0 STARLINK-5899,1 55949U 23037AM  24093.46615263 -.00006345  00000-0 -52399-3 0  9999,2 55949  70.0000 245.2591 0003115 273.4815  86.5988 14.98361603 59020,6950.095,96.105,574.125,569.795,0.0
55949.0,STARLINK-5899,PAYLOAD,2024-04-02 12:47:23,14.98362905,0.0003212,70.0001,245.0907,270.5397,89.5394,-0.00055223,-6.682e-05,0.0,0 STARLINK-5899,1 55949U 23037AM  24093.53291133 -.00006682  00000-0 -55223-3 0  9996,2 55949  70.0001 245.0907 0003212 270.5397  89.5394 14.98362905 58693,6950.091,96.105,574.189,569.724,0.0
55949.0,STARLINK-5899,PAYLOAD,2024-04-02 19:11:55,14.98355605,0.0002927,70.0001,244.4175,273.4115,86.6709,-0.00040729,-4.952e-05,0.0,0 STARLINK-5899,1 55949U 23037AM  24093.79994850 -.00004952  00000-0 -40729-3 0  9993,2 55949  70.0001 244.4175 0002927 273.4115  86.6709 14.98355605 58737,6950.114,96.105,574.013,569.944,0.0
55949.0,STARLINK-5899,PAYLOAD,2024-04-03 11:13:16,14.98322421,0.0002986,70.0002,242.7339,270.5359,89.5458,0.00014492,1.636e-05,0.0,0 STARLINK-5899,1 55949U 23037AM  24094.46755708  .00001636  00000-0  14492-3 0  9997,2 55949  70.0002 242.7339 0002986 270.5359  89.5458 14.98322421 59176,6950.216,96.107,574.157,570.006,0.0
55949.0,STARLINK-5899,PAYLOAD,2024-04-03 12:49:24,14.98322794,0.0002977,70.0002,242.5656,270.0137,90.0681,0.00014486,1.636e-05,0.0,0 STARLINK-5899,1 55949U 23037AM  24094.53431711  .00001636  00000-0  14486-3 0  9993,2 55949  70.0002 242.5656 0002977 270.0137  90.0681 14.98322794 58846,6950.215,96.107,574.149,570.011,0.0
55949.0,STARLINK-5899,PAYLOAD,2024-04-03 19:13:57,14.98326567,0.0003055,70.0001,241.8925,269.9116,90.1692,0.00012971,1.455e-05,0.0,0 STARLINK-5899,1 55949U 23037AM  24094.80135585  .00001455  00000-0  12971-3 0  9999,2 55949  70.0001 241.8925 0003055 269.9116  90.1692 14.98326567 58887,6950.204,96.107,574.192,569.945,0.0
55949.0,STARLINK-5899,PAYLOAD,2024-04-04 12:51:26,14.98326609,0.0003044,70.0002,240.0409,270.8898,89.1912,-1.2494e-05,-2.42e-06,0.0,0 STARLINK-5899,1 55949U 23037AM  24095.53572050 -.00000242  00000-0 -12494-4 0  9998,2 55949  70.0002 240.0409 0003044 270.8898  89.1912 14.98326609 59333,6950.203,96.107,574.184,569.953,0.0
